[{"OBJECT_NAME":"STARLINK-1216","OBJECT_ID":"2020-012H","EPOCH":"2026-03-09T22:34:00.394176","MEAN_MOTION":15.30198232,"ECCENTRICITY":0.00014284,"INCLINATION":53.1615,"RA_OF_ASC_NODE":38.0686,"ARG_OF_PERICENTER":103.7283,"MEAN_ANOMALY":256.3877,"EPHEMERIS_TYPE":0,"CLASSIFICATION_TYPE":"U","NORAD_CAT_ID":45185,"ELEMENT_SET_NO":999,"REV_AT_EPOCH":33493,"BSTAR":-2.0024159e-5,"MEAN_MOTION_DOT":-9.52e-6,"MEAN_MOTION_DDOT":0},{"OBJECT_NAME":"SCS-01 D","OBJECT_ID":"2025-100D","EPOCH":"2026-03-09T18:08:45.040704","MEAN_MOTION":15.31902149,"ECCENTRICITY":0.00063457,"INCLINATION":97.373,"RA_OF_ASC_NODE":145.4097,"ARG_OF_PERICENTER":266.2302,"MEAN_ANOMALY":93.8214,"EPHEMERIS_TYPE":0,"CLASSIFICATION_TYPE":"U","NORAD_CAT_ID":63985,"ELEMENT_SET_NO":999,"REV_AT_EPOCH":4562,"BSTAR":0.0010528181,"MEAN_MOTION_DOT":0.00032471,"MEAN_MOTION_DDOT":0}]
